{"fetched_at":"2026-06-14T17:24:05Z","count":17113,"tles":[{"name":"ORBCOMM FM108","line1":"1 41187U 15081J   26164.38348595  .00000377  00000+0  11596-3 0  9991","line2":"2 41187  47.0056 200.1825 0002734 209.5581 150.5151 14.58866983559521","category":"Other"},{"name":"ORBCOMM FM110","line1":"1 41182U 15081D   26164.33718721  .00000655  00000+0  17476-3 0  9995","line2":"2 41182  47.0031  19.6466 0002625  52.5825 307.5299 14.58875191557064","category":"Other"},{"name":"ORBCOMM FM114","line1":"1 41179U 15081A   26164.28024829  .00000433  00000+0  12794-3 0  9996","line2":"2 41179  47.0060  20.4759 0002252 192.2086 167.8745 14.58854678557187","category":"Other"},{"name":"ORBCOMM FM116","line1":"1 41189U 15081L   26164.60342551  .00000607  00000+0  16447-3 0  9990","line2":"2 41189  47.0030 287.5669 0000722  35.5355 324.5579 14.58878344558419","category":"Other"},{"name":"ORBCOMM FM113","line1":"1 41185U 15081G   26163.05131900  .00000335  00000+0  10705-3 0  9997","line2":"2 41185  47.0017 294.9070 0001998 204.7602 155.3188 14.58853293558185","category":"Other"},{"name":"ORBCOMM FM109","line1":"1 40086U 14040A   26162.13987668  .00000338  00000+0  10777-3 0  9990","line2":"2 40086  47.0025 120.0774 0001750 230.5593 129.5138 14.58838155633468","category":"Other"},{"name":"ORBCOMM FM06","line1":"1 25118U 97084G   26164.06172309  .00001150  00000+0  34863-3 0  9995","line2":"2 25118  45.0142  72.5721 0001539 318.6233  56.4827 14.47553366493791","category":"Other"},{"name":"ORBCOMM FM19","line1":"1 25415U 98046C   26164.53295993  .00000684  00000+0  26268-3 0  9992","line2":"2 25415  44.9937 260.9319 0004503 266.7747 107.0672 14.39490359456258","category":"Other"},{"name":"ORBCOMM FM20","line1":"1 25416U 98046D   26163.98366676  .00000543  00000+0  22434-3 0  9993","line2":"2 25416  44.9943 271.4189 0002054 236.4114 123.6538 14.38061574456188","category":"Other"},{"name":"ORBCOMM FM04","line1":"1 25159U 98007C   26164.63206386  .00000810  00000+0  32276-3 0  9990","line2":"2 25159 107.9627 162.1023 0041231 330.8868  28.9975 14.35735483476086","category":"Other"}]}